ONEWEB-0385             
1 49311U 21090AJ  24018.23782727 -.00000208  00000+0 -54287-3 0  9993
2 49311  87.9182  89.8044 0001448 107.1912 252.9379 13.20771251114839
ONEWEB-0386             
1 49312U 21090AK  24017.72489311  .00000015  00000+0  45856-5 0  9998
2 49312  87.9175  89.9115 0001566 110.3046 249.8256 13.20770656113462
ONEWEB-0387             
1 49313U 21090AL  24018.23940780  .00000050  00000+0  91346-4 0  9991
2 49313  87.9182  89.8614 0001418  94.0521 266.0775 13.20776432114844
ONEWEB-0388             
1 49314U 21090AM  24018.18925159 -.00000219  00000+0 -57919-3 0  9995
2 49314  87.9208 120.3465 0001620 116.8101 243.3198 13.19720553111509
ONEWEB-0389             
1 50469U 21132A   24017.88364131  .00000079  00000+0  17130-3 0  9991
2 50469  87.9215 181.1083 0001101  77.5042 282.6212 13.17648714102028
ONEWEB-0390             
1 50470U 21132B   24017.88521793  .00000135  00000+0  31532-3 0  9997
2 50470  87.9215 181.1165 0001597  80.2418 279.8893 13.17648733102022
ONEWEB-0391             
1 50471U 21132C   24017.88680100  .00000101  00000+0  22619-3 0  9995
2 50471  87.9223 181.0866 0000976  90.4213 269.7031 13.17648448102020
ONEWEB-0392             
1 50472U 21132D   24017.91684931  .00000026  00000+0  35061-4 0  9998
2 50472  87.9211 181.1029 0001234  83.4579 276.6693 13.17648111102067
