<?xml version="1.0" encoding="UTF-8"?>
<ndm xmlns:xsi="http://www.w3.org/2001/XMLSchema-instance" xsi:noNamespaceSchemaLocation="https://sanaregistry.org/r/ndmxml_unqualified/ndmxml-2.0.0-master-2.0.xsd">
<omm id="CCSDS_OMM_VERS" version="2.0">
<header><CREATION_DATE/><ORIGINATOR/></header><body><segment><metadata><OBJECT_NAME>ONEWEB-0385</OBJECT_NAME><OBJECT_ID>2021-090AJ</OBJECT_ID><CENTER_NAME>EARTH</CENTER_NAME><REF_FRAME>TEME</REF_FRAME><TIME_SYSTEM>UTC</TIME_SYSTEM><MEAN_ELEMENT_THEORY>SGP4</MEAN_ELEMENT_THEORY></metadata><data><meanElements><EPOCH>2024-01-18T05:42:28.276128</EPOCH><MEAN_MOTION>13.20771251</MEAN_MOTION><ECCENTRICITY>.0001448</ECCENTRICITY><INCLINATION>87.9182</INCLINATION><RA_OF_ASC_NODE>89.8044</RA_OF_ASC_NODE><ARG_OF_PERICENTER>107.1912</ARG_OF_PERICENTER><MEAN_ANOMALY>252.9379</MEAN_ANOMALY></meanElements><tleParameters><EPHEMERIS_TYPE>0</EPHEMERIS_TYPE><CLASSIFICATION_TYPE>U</CLASSIFICATION_TYPE><NORAD_CAT_ID>49311</NORAD_CAT_ID><ELEMENT_SET_NO>999</ELEMENT_SET_NO><REV_AT_EPOCH>11483</REV_AT_EPOCH><BSTAR>-.54287E-3</BSTAR><MEAN_MOTION_DOT>-.208E-5</MEAN_MOTION_DOT><MEAN_MOTION_DDOT>0</MEAN_MOTION_DDOT></tleParameters></data></segment></body></omm>
<omm id="CCSDS_OMM_VERS" version="2.0">
<header><CREATION_DATE/><ORIGINATOR/></header><body><segment><metadata><OBJECT_NAME>ONEWEB-0386</OBJECT_NAME><OBJECT_ID>2021-090AK</OBJECT_ID><CENTER_NAME>EARTH</CENTER_NAME><REF_FRAME>TEME</REF_FRAME><TIME_SYSTEM>UTC</TIME_SYSTEM><MEAN_ELEMENT_THEORY>SGP4</MEAN_ELEMENT_THEORY></metadata><data><meanElements><EPOCH>2024-01-17T17:23:50.764704</EPOCH><MEAN_MOTION>13.20770656</MEAN_MOTION><ECCENTRICITY>.0001566</ECCENTRICITY><INCLINATION>87.9175</INCLINATION><RA_OF_ASC_NODE>89.9115</RA_OF_ASC_NODE><ARG_OF_PERICENTER>110.3046</ARG_OF_PERICENTER><MEAN_ANOMALY>249.8256</MEAN_ANOMALY></meanElements><tleParameters><EPHEMERIS_TYPE>0</EPHEMERIS_TYPE><CLASSIFICATION_TYPE>U</CLASSIFICATION_TYPE><NORAD_CAT_ID>49312</NORAD_CAT_ID><ELEMENT_SET_NO>999</ELEMENT_SET_NO><REV_AT_EPOCH>11346</REV_AT_EPOCH><BSTAR>.45856E-5</BSTAR><MEAN_MOTION_DOT>.15E-6</MEAN_MOTION_DOT><MEAN_MOTION_DDOT>0</MEAN_MOTION_DDOT></tleParameters></data></segment></body></omm>
<omm id="CCSDS_OMM_VERS" version="2.0">
<header><CREATION_DATE/><ORIGINATOR/></header><body><segment><metadata><OBJECT_NAME>ONEWEB-0387</OBJECT_NAME><OBJECT_ID>2021-090AL</OBJECT_ID><CENTER_NAME>EARTH</CENTER_NAME><REF_FRAME>TEME</REF_FRAME><TIME_SYSTEM>UTC</TIME_SYSTEM><MEAN_ELEMENT_THEORY>SGP4</MEAN_ELEMENT_THEORY></metadata><data><meanElements><EPOCH>2024-01-18T05:44:44.833920</EPOCH><MEAN_MOTION>13.20776432</MEAN_MOTION><ECCENTRICITY>.0001418</ECCENTRICITY><INCLINATION>87.9182</INCLINATION><RA_OF_ASC_NODE>89.8614</RA_OF_ASC_NODE><ARG_OF_PERICENTER>94.0521</ARG_OF_PERICENTER><MEAN_ANOMALY>266.0775</MEAN_ANOMALY></meanElements><tleParameters><EPHEMERIS_TYPE>0</EPHEMERIS_TYPE><CLASSIFICATION_TYPE>U</CLASSIFICATION_TYPE><NORAD_CAT_ID>49313</NORAD_CAT_ID><ELEMENT_SET_NO>999</ELEMENT_SET_NO><REV_AT_EPOCH>11484</REV_AT_EPOCH><BSTAR>.91346E-4</BSTAR><MEAN_MOTION_DOT>.5E-6</MEAN_MOTION_DOT><MEAN_MOTION_DDOT>0</MEAN_MOTION_DDOT></tleParameters></data></segment></body></omm>
<omm id="CCSDS_OMM_VERS" version="2.0">
<header><CREATION_DATE/><ORIGINATOR/></header><body><segment><metadata><OBJECT_NAME>ONEWEB-0388</OBJECT_NAME><OBJECT_ID>2021-090AM</OBJECT_ID><CENTER_NAME>EARTH</CENTER_NAME><REF_FRAME>TEME</REF_FRAME><TIME_SYSTEM>UTC</TIME_SYSTEM><MEAN_ELEMENT_THEORY>SGP4</MEAN_ELEMENT_THEORY></metadata><data><meanElements><EPOCH>2024-01-18T04:32:31.337376</EPOCH><MEAN_MOTION>13.19720553</MEAN_MOTION><ECCENTRICITY>.000162</ECCENTRICITY><INCLINATION>87.9208</INCLINATION><RA_OF_ASC_NODE>120.3465</RA_OF_ASC_NODE><ARG_OF_PERICENTER>116.8101</ARG_OF_PERICENTER><MEAN_ANOMALY>243.3198</MEAN_ANOMALY></meanElements><tleParameters><EPHEMERIS_TYPE>0</EPHEMERIS_TYPE><CLASSIFICATION_TYPE>U</CLASSIFICATION_TYPE><NORAD_CAT_ID>49314</NORAD_CAT_ID><ELEMENT_SET_NO>999</ELEMENT_SET_NO><REV_AT_EPOCH>11150</REV_AT_EPOCH><BSTAR>-.57919E-3</BSTAR><MEAN_MOTION_DOT>-.219E-5</MEAN_MOTION_DOT><MEAN_MOTION_DDOT>0</MEAN_MOTION_DDOT></tleParameters></data></segment></body></omm>
<omm id="CCSDS_OMM_VERS" version="2.0">
<header><CREATION_DATE/><ORIGINATOR/></header><body><segment><metadata><OBJECT_NAME>ONEWEB-0389</OBJECT_NAME><OBJECT_ID>2021-132A</OBJECT_ID><CENTER_NAME>EARTH</CENTER_NAME><REF_FRAME>TEME</REF_FRAME><TIME_SYSTEM>UTC</TIME_SYSTEM><MEAN_ELEMENT_THEORY>SGP4</MEAN_ELEMENT_THEORY></metadata><data><meanElements><EPOCH>2024-01-17T21:12:26.609184</EPOCH><MEAN_MOTION>13.17648714</MEAN_MOTION><ECCENTRICITY>.0001101</ECCENTRICITY><INCLINATION>87.9215</INCLINATION><RA_OF_ASC_NODE>181.1083</RA_OF_ASC_NODE><ARG_OF_PERICENTER>77.5042</ARG_OF_PERICENTER><MEAN_ANOMALY>282.6212</MEAN_ANOMALY></meanElements><tleParameters><EPHEMERIS_TYPE>0</EPHEMERIS_TYPE><CLASSIFICATION_TYPE>U</CLASSIFICATION_TYPE><NORAD_CAT_ID>50469</NORAD_CAT_ID><ELEMENT_SET_NO>999</ELEMENT_SET_NO><REV_AT_EPOCH>10202</REV_AT_EPOCH><BSTAR>.1713E-3</BSTAR><MEAN_MOTION_DOT>.79E-6</MEAN_MOTION_DOT><MEAN_MOTION_DDOT>0</MEAN_MOTION_DDOT></tleParameters></data></segment></body></omm>
<omm id="CCSDS_OMM_VERS" version="2.0">
<header><CREATION_DATE/><ORIGINATOR/></header><body><segment><metadata><OBJECT_NAME>ONEWEB-0390</OBJECT_NAME><OBJECT_ID>2021-132B</OBJECT_ID><CENTER_NAME>EARTH</CENTER_NAME><REF_FRAME>TEME</REF_FRAME><TIME_SYSTEM>UTC</TIME_SYSTEM><MEAN_ELEMENT_THEORY>SGP4</MEAN_ELEMENT_THEORY></metadata><data><meanElements><EPOCH>2024-01-17T21:14:42.829152</EPOCH><MEAN_MOTION>13.17648733</MEAN_MOTION><ECCENTRICITY>.0001597</ECCENTRICITY><INCLINATION>87.9215</INCLINATION><RA_OF_ASC_NODE>181.1165</RA_OF_ASC_NODE><ARG_OF_PERICENTER>80.2418</ARG_OF_PERICENTER><MEAN_ANOMALY>279.8893</MEAN_ANOMALY></meanElements><tleParameters><EPHEMERIS_TYPE>0</EPHEMERIS_TYPE><CLASSIFICATION_TYPE>U</CLASSIFICATION_TYPE><NORAD_CAT_ID>50470</NORAD_CAT_ID><ELEMENT_SET_NO>999</ELEMENT_SET_NO><REV_AT_EPOCH>10202</REV_AT_EPOCH><BSTAR>.31532E-3</BSTAR><MEAN_MOTION_DOT>.135E-5</MEAN_MOTION_DOT><MEAN_MOTION_DDOT>0</MEAN_MOTION_DDOT></tleParameters></data></segment></body></omm>
<omm id="CCSDS_OMM_VERS" version="2.0">
<header><CREATION_DATE/><ORIGINATOR/></header><body><segment><metadata><OBJECT_NAME>ONEWEB-0391</OBJECT_NAME><OBJECT_ID>2021-132C</OBJECT_ID><CENTER_NAME>EARTH</CENTER_NAME><REF_FRAME>TEME</REF_FRAME><TIME_SYSTEM>UTC</TIME_SYSTEM><MEAN_ELEMENT_THEORY>SGP4</MEAN_ELEMENT_THEORY></metadata><data><meanElements><EPOCH>2024-01-17T21:16:59.606400</EPOCH><MEAN_MOTION>13.17648448</MEAN_MOTION><ECCENTRICITY>.0000976</ECCENTRICITY><INCLINATION>87.9223</INCLINATION><RA_OF_ASC_NODE>181.0866</RA_OF_ASC_NODE><ARG_OF_PERICENTER>90.4213</ARG_OF_PERICENTER><MEAN_ANOMALY>269.7031</MEAN_ANOMALY></meanElements><tleParameters><EPHEMERIS_TYPE>0</EPHEMERIS_TYPE><CLASSIFICATION_TYPE>U</CLASSIFICATION_TYPE><NORAD_CAT_ID>50471</NORAD_CAT_ID><ELEMENT_SET_NO>999</ELEMENT_SET_NO><REV_AT_EPOCH>10202</REV_AT_EPOCH><BSTAR>.22619E-3</BSTAR><MEAN_MOTION_DOT>.101E-5</MEAN_MOTION_DOT><MEAN_MOTION_DDOT>0</MEAN_MOTION_DDOT></tleParameters></data></segment></body></omm>
<omm id="CCSDS_OMM_VERS" version="2.0">
<header><CREATION_DATE/><ORIGINATOR/></header><body><segment><metadata><OBJECT_NAME>ONEWEB-0392</OBJECT_NAME><OBJECT_ID>2021-132D</OBJECT_ID><CENTER_NAME>EARTH</CENTER_NAME><REF_FRAME>TEME</REF_FRAME><TIME_SYSTEM>UTC</TIME_SYSTEM><MEAN_ELEMENT_THEORY>SGP4</MEAN_ELEMENT_THEORY></metadata><data><meanElements><EPOCH>2024-01-17T22:00:15.780384</EPOCH><MEAN_MOTION>13.17648111</MEAN_MOTION><ECCENTRICITY>.0001234</ECCENTRICITY><INCLINATION>87.9211</INCLINATION><RA_OF_ASC_NODE>181.1029</RA_OF_ASC_NODE><ARG_OF_PERICENTER>83.4579</ARG_OF_PERICENTER><MEAN_ANOMALY>276.6693</MEAN_ANOMALY></meanElements><tleParameters><EPHEMERIS_TYPE>0</EPHEMERIS_TYPE><CLASSIFICATION_TYPE>U</CLASSIFICATION_TYPE><NORAD_CAT_ID>50472</NORAD_CAT_ID><ELEMENT_SET_NO>999</ELEMENT_SET_NO><REV_AT_EPOCH>10206</REV_AT_EPOCH><BSTAR>.35061E-4</BSTAR><MEAN_MOTION_DOT>.26E-6</MEAN_MOTION_DOT><MEAN_MOTION_DDOT>0</MEAN_MOTION_DDOT></tleParameters></data></segment></body></omm>

</ndm>
